{"type": "FeatureCollection", "features": [ {"type": "Feature", "properties": {"norad_id": 67020, "name": "STARLINK-36172", "group": "last-30-days", "lat": 7.588218522469174, "lon": -64.62346740671038, "alt_km": 321.9067712172473, "timestamp": "2025-12-23T11:34:46.948968+00:00", "meta": {"OBJECT_NAME": "STARLINK-36172", "OBJECT_ID": "2025-293T", "EPOCH": "2025-12-23T04:00:01.998720", "MEAN_MOTION": 15.84811011, "ECCENTRICITY": 0.000396, "INCLINATION": 69.9927, "RA_OF_ASC_NODE": 293.5008, "ARG_OF_PERICENTER": 269.9975, "MEAN_ANOMALY": 97.6314, "EPHEMERIS_TYPE": 0, "CLASSIFICATION_TYPE": "U", "NORAD_CAT_ID": 67020, "ELEMENT_SET_NO": 999, "REV_AT_EPOCH": 190, "BSTAR": -0.0079282, "MEAN_MOTION_DOT": -0.01618468, "MEAN_MOTION_DDOT": 0}, "tle": {"line1": "1 67020U 25293T   25357.16668980 -.01618468  00000+0 -79282-2 0  9997", "line2": "2 67020  69.9927 293.5008 0003960 269.9975  97.6314 15.84811011  1901"}}, "geometry": {"type": "Point", "coordinates": [-64.62346740671038, 7.588218522469174]}}, {"type": "Feature", "properties": {"norad_id": 67021, "name": "STARLINK-36184", "group": "last-30-days", "lat": 10.039909786150927, "lon": -63.71029421862386, "alt_km": 321.79290991649214, "timestamp": "2025-12-23T11:34:46.948976+00:00", "meta": {"OBJECT_NAME": "STARLINK-36184", "OBJECT_ID": "2025-293U", "EPOCH": "2025-12-23T04:00:01.998720", "MEAN_MOTION": 15.84787805, "ECCENTRICITY": 0.0003934, "INCLINATION": 69.9928, "RA_OF_ASC_NODE": 293.4975, "ARG_OF_PERICENTER": 268.4994, "MEAN_ANOMALY": 101.7688, "EPHEMERIS_TYPE": 0, "CLASSIFICATION_TYPE": "U", "NORAD_CAT_ID": 67021, "ELEMENT_SET_NO": 999, "REV_AT_EPOCH": 190, "BSTAR": -0.0079356, "MEAN_MOTION_DOT": -0.01618165, "MEAN_MOTION_DDOT": 0}, "tle": {"line1": "1 67021U 25293U   25357.16668980 -.01618165  00000+0 -79356-2 0  9994", "line2": "2 67021  69.9928 293.4975 0003934 268.4994 101.7688 15.84787805  1905"}}, "geometry": {"type": "Point", "coordinates": [-63.71029421862386, 10.039909786150927]}}, {"type": "Feature", "properties": {"norad_id": 67022, "name": "STARLINK-36209", "group": "last-30-days", "lat": 12.843357326201499, "lon": -62.64717560432026, "alt_km": 321.427787861021, "timestamp": "2025-12-23T11:34:46.948986+00:00", "meta": {"OBJECT_NAME": "STARLINK-36209", "OBJECT_ID": "2025-293V", "EPOCH": "2025-12-23T04:00:01.998720", "MEAN_MOTION": 15.84751969, "ECCENTRICITY": 0.0004005, "INCLINATION": 69.9926, "RA_OF_ASC_NODE": 293.494, "ARG_OF_PERICENTER": 272.4514, "MEAN_ANOMALY": 100.8463, "EPHEMERIS_TYPE": 0, "CLASSIFICATION_TYPE": "U", "NORAD_CAT_ID": 67022, "ELEMENT_SET_NO": 999, "REV_AT_EPOCH": 190, "BSTAR": -0.0079462, "MEAN_MOTION_DOT": -0.01617681, "MEAN_MOTION_DDOT": 0}, "tle": {"line1": "1 67022U 25293V   25357.16668980 -.01617681  00000+0 -79462-2 0  9995", "line2": "2 67022  69.9926 293.4940 0004005 272.4514 100.8463 15.84751969  1902"}}, "geometry": {"type": "Point", "coordinates": [-62.64717560432026, 12.843357326201499]}}, {"type": "Feature", "properties": {"norad_id": 67023, "name": "STARLINK-36191", "group": "last-30-days", "lat": 15.201519288027058, "lon": -61.7339084446797, "alt_km": 321.2623791566584, "timestamp": "2025-12-23T11:34:46.948995+00:00", "meta": {"OBJECT_NAME": "STARLINK-36191", "OBJECT_ID": "2025-293W", "EPOCH": "2025-12-23T04:00:01.998720", "MEAN_MOTION": 15.847362, "ECCENTRICITY": 0.0003998, "INCLINATION": 69.9926, "RA_OF_ASC_NODE": 293.4904, "ARG_OF_PERICENTER": 271.7241, "MEAN_ANOMALY": 104.1126, "EPHEMERIS_TYPE": 0, "CLASSIFICATION_TYPE": "U", "NORAD_CAT_ID": 67023, "ELEMENT_SET_NO": 999, "REV_AT_EPOCH": 179, "BSTAR": -0.0079762, "MEAN_MOTION_DOT": -0.01621932, "MEAN_MOTION_DDOT": 0}, "tle": {"line1": "1 67023U 25293W   25357.16668980 -.01621932  00000+0 -79762-2 0  9993", "line2": "2 67023  69.9926 293.4904 0003998 271.7241 104.1126 15.84736200  1793"}}, "geometry": {"type": "Point", "coordinates": [-61.7339084446797, 15.201519288027058]}}, {"type": "Feature", "properties": {"norad_id": 67024, "name": "STARLINK-36192", "group": "last-30-days", "lat": 17.816427331321094, "lon": -60.69386318072429, "alt_km": 321.23919145951913, "timestamp": "2025-12-23T11:34:46.949004+00:00", "meta": {"OBJECT_NAME": "STARLINK-36192", "OBJECT_ID": "2025-293X", "EPOCH": "2025-12-22T22:00:03.000096", "MEAN_MOTION": 15.8565053, "ECCENTRICITY": 0.00039699, "INCLINATION": 69.993, "RA_OF_ASC_NODE": 294.2063, "ARG_OF_PERICENTER": 266.7754, "MEAN_ANOMALY": 125.731, "EPHEMERIS_TYPE": 0, "CLASSIFICATION_TYPE": "U", "NORAD_CAT_ID": 67024, "ELEMENT_SET_NO": 999, "REV_AT_EPOCH": 186, "BSTAR": -0.0079218488, "MEAN_MOTION_DOT": -0.01675933, "MEAN_MOTION_DDOT": 0}, "tle": {"line1": "1 67024U 25293X   25356.91670139 -.01675933  00000+0 -79218-2 0  9991", "line2": "2 67024  69.9930 294.2063 0003969 266.7754 125.7310 15.85650530  1869"}}, "geometry": {"type": "Point", "coordinates": [-60.69386318072429, 17.816427331321094]}}, {"type": "Feature", "properties": {"norad_id": 67025, "name": "STARLINK-36178", "group": "last-30-days", "lat": 20.00301665375943, "lon": -59.79946833611727, "alt_km": 320.7570697088531, "timestamp": "2025-12-23T11:34:46.949013+00:00", "meta": {"OBJECT_NAME": "STARLINK-36178", "OBJECT_ID": "2025-293Y", "EPOCH": "2025-12-23T04:00:01.998720", "MEAN_MOTION": 15.84694188, "ECCENTRICITY": 0.0003847, "INCLINATION": 69.9927, "RA_OF_ASC_NODE": 293.4845, "ARG_OF_PERICENTER": 272.821, "MEAN_ANOMALY": 108.2059, "EPHEMERIS_TYPE": 0, "CLASSIFICATION_TYPE": "U", "NORAD_CAT_ID": 67025, "ELEMENT_SET_NO": 999, "REV_AT_EPOCH": 190, "BSTAR": -0.007982, "MEAN_MOTION_DOT": -0.0161991, "MEAN_MOTION_DDOT": 0}, "tle": {"line1": "1 67025U 25293Y   25357.16668980 -.01619910  00000+0 -79820-2 0  9993", "line2": "2 67025  69.9927 293.4845 0003847 272.8210 108.2059 15.84694188  1902"}}, "geometry": {"type": "Point", "coordinates": [-59.79946833611727, 20.00301665375943]}}, {"type": "Feature", "properties": {"norad_id": 67026, "name": "STARLINK-36176", "group": "last-30-days", "lat": 24.73542595206432, "lon": -57.76427672785506, "alt_km": 320.27077784179346, "timestamp": "2025-12-23T11:34:46.949022+00:00", "meta": {"OBJECT_NAME": "STARLINK-36176", "OBJECT_ID": "2025-293Z", "EPOCH": "2025-12-23T04:00:01.998720", "MEAN_MOTION": 15.84650733, "ECCENTRICITY": 0.0003885, "INCLINATION": 69.9926, "RA_OF_ASC_NODE": 293.4781, "ARG_OF_PERICENTER": 274.009, "MEAN_ANOMALY": 112.1553, "EPHEMERIS_TYPE": 0, "CLASSIFICATION_TYPE": "U", "NORAD_CAT_ID": 67026, "ELEMENT_SET_NO": 999, "REV_AT_EPOCH": 190, "BSTAR": -0.0079704, "MEAN_MOTION_DOT": -0.01614925, "MEAN_MOTION_DDOT": 0}, "tle": {"line1": "1 67026U 25293Z   25357.16668980 -.01614925  00000+0 -79704-2 0  9996", "line2": "2 67026  69.9926 293.4781 0003885 274.0090 112.1553 15.84650733  1904"}}, "geometry": {"type": "Point", "coordinates": [-57.76427672785506, 24.73542595206432]}}, {"type": "Feature", "properties": {"norad_id": 67027, "name": "STARLINK-36171", "group": "last-30-days", "lat": 22.67772336178162, "lon": -58.667373883695994, "alt_km": 320.54253851424346, "timestamp": "2025-12-23T11:34:46.949032+00:00", "meta": {"OBJECT_NAME": "STARLINK-36171", "OBJECT_ID": "2025-293AA", "EPOCH": "2025-12-23T04:00:01.998720", "MEAN_MOTION": 15.8466605, "ECCENTRICITY": 0.0003927, "INCLINATION": 69.9923, "RA_OF_ASC_NODE": 293.4811, "ARG_OF_PERICENTER": 273.071, "MEAN_ANOMALY": 110.863, "EPHEMERIS_TYPE": 0, "CLASSIFICATION_TYPE": "U", "NORAD_CAT_ID": 67027, "ELEMENT_SET_NO": 999, "REV_AT_EPOCH": 190, "BSTAR": -0.0080173, "MEAN_MOTION_DOT": -0.01624339, "MEAN_MOTION_DDOT": 0}, "tle": {"line1": "1 67027U 25293AA  25357.16668980 -.01624339  00000+0 -80173-2 0  9999", "line2": "2 67027  69.9923 293.4811 0003927 273.0710 110.8630 15.84666050  1901"}}, "geometry": {"type": "Point", "coordinates": [-58.667373883695994, 22.67772336178162]}}, {"type": "Feature", "properties": {"norad_id": 67028, "name": "STARLINK-36132", "group": "last-30-days", "lat": 29.47876828633528, "lon": -55.547402230172395, "alt_km": 319.7832858748616, "timestamp": "2025-12-23T11:34:46.949042+00:00", "meta": {"OBJECT_NAME": "STARLINK-36132", "OBJECT_ID": "2025-293AB", "EPOCH": "2025-12-23T04:00:01.998720", "MEAN_MOTION": 15.84612575, "ECCENTRICITY": 0.0003948, "INCLINATION": 69.9928, "RA_OF_ASC_NODE": 293.4722, "ARG_OF_PERICENTER": 275.4363, "MEAN_ANOMALY": 115.908, "EPHEMERIS_TYPE": 0, "CLASSIFICATION_TYPE": "U", "NORAD_CAT_ID": 67028, "ELEMENT_SET_NO": 999, "REV_AT_EPOCH": 190, "BSTAR": -0.0080216, "MEAN_MOTION_DOT": -0.01621447, "MEAN_MOTION_DDOT": 0}, "tle": {"line1": "1 67028U 25293AB  25357.16668980 -.01621447  00000+0 -80216-2 0  9995", "line2": "2 67028  69.9928 293.4722 0003948 275.4363 115.9080 15.84612575  1909"}}, "geometry": {"type": "Point", "coordinates": [-55.547402230172395, 29.47876828633528]}}, {"type": "Feature", "properties": {"norad_id": 67029, "name": "STARLINK-36190", "group": "last-30-days", "lat": 26.89124596446981, "lon": -56.78168369922446, "alt_km": 320.10105593225035, "timestamp": "2025-12-23T11:34:46.949054+00:00", "meta": {"OBJECT_NAME": "STARLINK-36190", "OBJECT_ID": "2025-293AC", "EPOCH": "2025-12-23T04:00:01.998720", "MEAN_MOTION": 15.84640801, "ECCENTRICITY": 0.000389, "INCLINATION": 69.9928, "RA_OF_ASC_NODE": 293.4758, "ARG_OF_PERICENTER": 272.8798, "MEAN_ANOMALY": 115.6275, "EPHEMERIS_TYPE": 0, "CLASSIFICATION_TYPE": "U", "NORAD_CAT_ID": 67029, "ELEMENT_SET_NO": 999, "REV_AT_EPOCH": 190, "BSTAR": -0.0080021, "MEAN_MOTION_DOT": -0.01619872, "MEAN_MOTION_DDOT": 0}, "tle": {"line1": "1 67029U 25293AC  25357.16668980 -.01619872  00000+0 -80021-2 0  9999", "line2": "2 67029  69.9928 293.4758 0003890 272.8798 115.6275 15.84640801  1904"}}, "geometry": {"type": "Point", "coordinates": [-56.78168369922446, 26.89124596446981]}}]}